Honghu-3 #10005704
1 99999U 24029BR  24282.57172454  .00001103  00000-0  33518-4 0  9998
2 99999  50.0000 340.7036 0003481 299.7327  29.1331 15.34343164  1772
Honghu-3 #10005705
1 99999U 24029BR  24282.57172454  .00001103  00000-0  33518-4 0  9998
2 99999  50.0000 340.7036 0003481 299.7327  36.3331 15.34343164  1772
Honghu-3 #10005706
1 99999U 24029BR  24282.57172454  .00001103  00000-0  33518-4 0  9998
2 99999  50.0000 340.7036 0003481 299.7327  43.5331 15.34343164  1772
Honghu-3 #10005707
1 99999U 24029BR  24282.57172454  .00001103  00000-0  33518-4 0  9998
2 99999  50.0000 340.7036 0003481 299.7327  50.7331 15.34343164  1772
Honghu-3 #10005708
1 99999U 24029BR  24282.57172454  .00001103  00000-0  33518-4 0  9998
2 99999  50.0000 340.7036 0003481 299.7327  57.9331 15.34343164  1772
Honghu-3 #10005709
1 99999U 24029BR  24282.57172454  .00001103  00000-0  33518-4 0  9998
2 99999  50.0000 340.7036 0003481 299.7327  65.1331 15.34343164  1772
Honghu-3 #10005710
1 99999U 24029BR  24282.57172454  .00001103  00000-0  33518-4 0  9998
2 99999  50.0000 340.7036 0003481 299.7327  72.3331 15.34343164  1772
Honghu-3 #10005711
1 99999U 24029BR  24282.57172454  .00001103  00000-0  33518-4 0  9998
2 99999  50.0000 340.7036 0003481 299.7327  79.5331 15.34343164  1772
Honghu-3 #10005712
1 99999U 24029BR  24282.57172454  .00001103  00000-0  33518-4 0  9998
2 99999  50.0000 340.7036 0003481 299.7327  86.7331 15.34343164  1772
Honghu-3 #10005713
1 99999U 24029BR  24282.57172454  .00001103  00000-0  33518-4 0  9998
2 99999  50.0000 340.7036 0003481 299.7327  93.9331 15.34343164  1772
Honghu-3 #10005714
1 99999U 24029BR  24282.57172454  .00001103  00000-0  33518-4 0  9998
2 99999  50.0000 340.7036 0003481 299.7327 101.1331 15.34343164  1773
Honghu-3 #10005715
1 99999U 24029BR  24282.57172454  .00001103  00000-0  33518-4 0  9998
2 99999  50.0000 340.7036 0003481 299.7327 108.3331 15.34343164  1773
Honghu-3 #10005716
1 99999U 24029BR  24282.57172454  .00001103  00000-0  33518-4 0  9998
2 99999  50.0000 340.7036 0003481 299.7327 115.5331 15.34343164  1773
Honghu-3 #10005717
1 99999U 24029BR  24282.57172454  .00001103  00000-0  33518-4 0  9998
2 99999  50.0000 340.7036 0003481 299.7327 122.7331 15.34343164  1773
Honghu-3 #10005718
1 99999U 24029BR  24282.57172454  .00001103  00000-0  33518-4 0  9998
2 99999  50.0000 340.7036 0003481 299.7327 129.9331 15.34343164  1773
Honghu-3 #10005719
1 99999U 24029BR  24282.57172454  .00001103  00000-0  33518-4 0  9998
2 99999  50.0000 340.7036 0003481 299.7327 137.1331 15.34343164  1773
Honghu-3 #10005720
1 99999U 24029BR  24282.57172454  .00001103  00000-0  33518-4 0  9998
2 99999  50.0000 340.7036 0003481 299.7327 144.3331 15.34343164  1773
Honghu-3 #10005721
1 99999U 24029BR  24282.57172454  .00001103  00000-0  33518-4 0  9998
2 99999  50.0000 340.7036 0003481 299.7327 151.5331 15.34343164  1773
Honghu-3 #10005722
1 99999U 24029BR  24282.57172454  .00001103  00000-0  33518-4 0  9998
2 99999  50.0000 340.7036 0003481 299.7327 158.7331 15.34343164  1773
Honghu-3 #10005723
1 99999U 24029BR  24282.57172454  .00001103  00000-0  33518-4 0  9998
2 99999  50.0000 340.7036 0003481 299.7327 165.9331 15.34343164  1773
Honghu-3 #10005724
1 99999U 24029BR  24282.57172454  .00001103  00000-0  33518-4 0  9998
2 99999  50.0000 340.7036 0003481 299.7327 173.1331 15.34343164  1773
Honghu-3 #10005725
1 99999U 24029BR  24282.57172454  .00001103  00000-0  33518-4 0  9998
2 99999  50.0000 340.7036 0003481 299.7327 180.3331 15.34343164  1773
Honghu-3 #10005726
1 99999U 24029BR  24282.57172454  .00001103  00000-0  33518-4 0  9998
2 99999  50.0000 340.7036 0003481 299.7327 187.5331 15.34343164  1773
Honghu-3 #10005727
1 99999U 24029BR  24282.57172454  .00001103  00000-0  33518-4 0  9998
2 99999  50.0000 340.7036 0003481 299.7327 194.7331 15.34343164  1773
Honghu-3 #10005728
1 99999U 24029BR  24282.57172454  .00001103  00000-0  33518-4 0  9998
2 99999  50.0000 340.7036 0003481 299.7327 201.9331 15.34343164  1773
Honghu-3 #10005729
1 99999U 24029BR  24282.57172454  .00001103  00000-0  33518-4 0  9998
2 99999  50.0000 340.7036 0003481 299.7327 209.1331 15.34343164  1773
Honghu-3 #10005730
1 99999U 24029BR  24282.57172454  .00001103  00000-0  33518-4 0  9998
2 99999  50.0000 340.7036 0003481 299.7327 216.3331 15.34343164  1773
Honghu-3 #10005731
1 99999U 24029BR  24282.57172454  .00001103  00000-0  33518-4 0  9998
2 99999  50.0000 340.7036 0003481 299.7327 223.5331 15.34343164  1773
Honghu-3 #10005732
1 99999U 24029BR  24282.57172454  .00001103  00000-0  33518-4 0  9998
2 99999  50.0000 340.7036 0003481 299.7327 230.7331 15.34343164  1773
Honghu-3 #10005733
1 99999U 24029BR  24282.57172454  .00001103  00000-0  33518-4 0  9998
2 99999  50.0000 340.7036 0003481 299.7327 237.9331 15.34343164  1773
Honghu-3 #10005734
1 99999U 24029BR  24282.57172454  .00001103  00000-0  33518-4 0  9998
2 99999  50.0000 340.7036 0003481 299.7327 245.1331 15.34343164  1773
Honghu-3 #10005735
1 99999U 24029BR  24282.57172454  .00001103  00000-0  33518-4 0  9998
2 99999  50.0000 340.7036 0003481 299.7327 252.3331 15.34343164  1773
Honghu-3 #10005736
1 99999U 24029BR  24282.57172454  .00001103  00000-0  33518-4 0  9998
2 99999  50.0000 340.7036 0003481 299.7327 259.5331 15.34343164  1773
Honghu-3 #10005737
1 99999U 24029BR  24282.57172454  .00001103  00000-0  33518-4 0  9998
2 99999  50.0000 340.7036 0003481 299.7327 266.7331 15.34343164  1773
Honghu-3 #10005738
1 99999U 24029BR  24282.57172454  .00001103  00000-0  33518-4 0  9998
2 99999  50.0000 340.7036 0003481 299.7327 273.9331 15.34343164  1773
Honghu-3 #10005739
1 99999U 24029BR  24282.57172454  .00001103  00000-0  33518-4 0  9998
2 99999  50.0000 340.7036 0003481 299.7327 281.1331 15.34343164  1773
Honghu-3 #10005740
1 99999U 24029BR  24282.57172454  .00001103  00000-0  33518-4 0  9998
2 99999  50.0000 340.7036 0003481 299.7327 288.3331 15.34343164  1773
Honghu-3 #10005741
1 99999U 24029BR  24282.57172454  .00001103  00000-0  33518-4 0  9998
2 99999  50.0000 340.7036 0003481 299.7327 295.5331 15.34343164  1773
Honghu-3 #10005742
1 99999U 24029BR  24282.57172454  .00001103  00000-0  33518-4 0  9998
2 99999  50.0000 340.7036 0003481 299.7327 302.7331 15.34343164  1773
Honghu-3 #10005743
1 99999U 24029BR  24282.57172454  .00001103  00000-0  33518-4 0  9998
2 99999  50.0000 340.7036 0003481 299.7327 309.9331 15.34343164  1773
Honghu-3 #10005744
1 99999U 24029BR  24282.57172454  .00001103  00000-0  33518-4 0  9998
2 99999  50.0000 340.7036 0003481 299.7327 317.1331 15.34343164  1773
Honghu-3 #10005745
1 99999U 24029BR  24282.57172454  .00001103  00000-0  33518-4 0  9998
2 99999  50.0000 340.7036 0003481 299.7327 324.3331 15.34343164  1773
Honghu-3 #10005746
1 99999U 24029BR  24282.57172454  .00001103  00000-0  33518-4 0  9998
2 99999  50.0000 340.7036 0003481 299.7327 331.5331 15.34343164  1773
Honghu-3 #10005747
1 99999U 24029BR  24282.57172454  .00001103  00000-0  33518-4 0  9998
2 99999  50.0000 340.7036 0003481 299.7327 338.7331 15.34343164  1773
Honghu-3 #10005748
1 99999U 24029BR  24282.57172454  .00001103  00000-0  33518-4 0  9998
2 99999  50.0000 340.7036 0003481 299.7327 345.9331 15.34343164  1773
Honghu-3 #10005749
1 99999U 24029BR  24282.57172454  .00001103  00000-0  33518-4 0  9998
2 99999  50.0000 340.7036 0003481 299.7327 353.1331 15.34343164  1773
Honghu-3 #10005750
1 99999U 24029BR  24282.57172454  .00001103  00000-0  33518-4 0  9998
2 99999  50.0000 350.7036 0003481 299.7327   0.3331 15.34343164  1771
Honghu-3 #10005751
1 99999U 24029BR  24282.57172454  .00001103  00000-0  33518-4 0  9998
2 99999  50.0000 350.7036 0003481 299.7327   7.5331 15.34343164  1771
Honghu-3 #10005752
1 99999U 24029BR  24282.57172454  .00001103  00000-0  33518-4 0  9998
2 99999  50.0000 350.7036 0003481 299.7327  14.7331 15.34343164  1772
Honghu-3 #10005753
1 99999U 24029BR  24282.57172454  .00001103  00000-0  33518-4 0  9998
2 99999  50.0000 350.7036 0003481 299.7327  21.9331 15.34343164  1772
Honghu-3 #10005754
1 99999U 24029BR  24282.57172454  .00001103  00000-0  33518-4 0  9998
2 99999  50.0000 350.7036 0003481 299.7327  29.1331 15.34343164  1772
Honghu-3 #10005755
1 99999U 24029BR  24282.57172454  .00001103  00000-0  33518-4 0  9998
2 99999  50.0000 350.7036 0003481 299.7327  36.3331 15.34343164  1772
Honghu-3 #10005756
1 99999U 24029BR  24282.57172454  .00001103  00000-0  33518-4 0  9998
2 99999  50.0000 350.7036 0003481 299.7327  43.5331 15.34343164  1772
Honghu-3 #10005757
1 99999U 24029BR  24282.57172454  .00001103  00000-0  33518-4 0  9998
2 99999  50.0000 350.7036 0003481 299.7327  50.7331 15.34343164  1772
Honghu-3 #10005758
1 99999U 24029BR  24282.57172454  .00001103  00000-0  33518-4 0  9998
2 99999  50.0000 350.7036 0003481 299.7327  57.9331 15.34343164  1772
Honghu-3 #10005759
1 99999U 24029BR  24282.57172454  .00001103  00000-0  33518-4 0  9998
2 99999  50.0000 350.7036 0003481 299.7327  65.1331 15.34343164  1772
Honghu-3 #10005760
1 99999U 24029BR  24282.57172454  .00001103  00000-0  33518-4 0  9998
2 99999  50.0000 350.7036 0003481 299.7327  72.3331 15.34343164  1772
Honghu-3 #10005761
1 99999U 24029BR  24282.57172454  .00001103  00000-0  33518-4 0  9998
2 99999  50.0000 350.7036 0003481 299.7327  79.5331 15.34343164  1772
Honghu-3 #10005762
1 99999U 24029BR  24282.57172454  .00001103  00000-0  33518-4 0  9998
2 99999  50.0000 350.7036 0003481 299.7327  86.7331 15.34343164  1772
Honghu-3 #10005763
1 99999U 24029BR  24282.57172454  .00001103  00000-0  33518-4 0  9998
2 99999  50.0000 350.7036 0003481 299.7327  93.9331 15.34343164  1772
Honghu-3 #10005764
1 99999U 24029BR  24282.57172454  .00001103  00000-0  33518-4 0  9998
2 99999  50.0000 350.7036 0003481 299.7327 101.1331 15.34343164  1773
Honghu-3 #10005765
1 99999U 24029BR  24282.57172454  .00001103  00000-0  33518-4 0  9998
2 99999  50.0000 350.7036 0003481 299.7327 108.3331 15.34343164  1773
